X,Y,item,device_id,device_id1,Desc_,UpdateDate,UpdateTime,link,Route,ImageName,VideoURL,ORG,latitude,longitude,Type,FID,VideoURL_HB,VideoURL_HD,REGION,RECORDED,COMMON_ID,FUNCTION,Column1
-10193515.09,5149737.356,,59527642,,CR - US 30 @ E of Jappa Rd (33),20251113,4512,,US 30,CR - US 30 @ E of Jappa Rd (33),https://iowadotsfs1.us-east-1.skyvdn.com:443/rtplive/crtv33lb/playlist.m3u8,IADOT,41.924906,-91.569904,Iowa DOT,246853,,,Cedar Rapids,Y,CRTV33,General,
-10201504.26,5123983.21,,59527652,,6DT - I-380 @ W Penn Street (IWZ 3141),20251113,4512,,I-380,6DT - I-380 @ W Penn Street (IWZ 3141),https://iowadotsfs1.us-east-1.skyvdn.com:443/rtplive/iwz3141lb/playlist.m3u8,IADOT,41.752542,-91.641672,Iowa DOT,246865,,,IWZ,Y,IWZ3141,IWZ,
-10196737.45,5163313.838,,59527665,,CR - IA 100 @ East Post Rd (45),20251113,4512,,IA 100,CR - IA 100 @ East Post Rd (45),https://iowadotsfs1.us-east-1.skyvdn.com:443/rtplive/crtv45lb/playlist.m3u8,IADOT,42.015582,-91.598851,Iowa DOT,246893,,,Cedar Rapids,Y,CRTV45,General,
-10179611.5,5111964.217,,59527671,,IC - I-80 @ Herbert Hoover Hwy (19Q),20251113,4512,,I-80,IC - I-80 @ Herbert Hoover Hwy (19Q),https://iowadotsfs2.us-east-1.skyvdn.com:443/rtplive/ictv19qlb/playlist.m3u8,IADOT,41.671944,-91.445006,Iowa DOT,246896,,,Iowa City,Y,ICTV19Q,General,
-10205352.8,5166215.024,,59527673,,CR - I-380 @ Blairs Ferry Rd NE (18),20251113,4512,,I-380,CR - I-380 @ Blairs Ferry Rd NE (18),https://iowadotsfs1.us-east-1.skyvdn.com:443/rtplive/crtv18lb/playlist.m3u8,IADOT,42.034942,-91.676244,Iowa DOT,246897,,,Cedar Rapids,Y,CRTV18,General,
-10179610.95,5111964.217,,59527676,,IC - I-80 @ Herbert Hoover Hwy (19),20251113,4512,,I-80,IC - I-80 @ Herbert Hoover Hwy (19),https://iowadotsfs1.us-east-1.skyvdn.com:443/rtplive/ictv19lb/playlist.m3u8,IADOT,41.671944,-91.445001,Iowa DOT,246900,,,Iowa City,Y,ICTV19,General,
-10199215.2,5164814.222,,59527679,,CR - Collins Rd @ 1st Ave E (42),20251113,4512,,Collins Rd,CR - Collins Rd @ 1st Ave E (42),https://iowadotsfs1.us-east-1.skyvdn.com:443/rtplive/crtv42lb/playlist.m3u8,IADOT,42.025595,-91.621109,Iowa DOT,246901,,,Cedar Rapids,Y,CRTV42,General,
-10192998.56,5113934.587,,59527687,,IC - I-80 @ 1st Ave (06),20251113,4512,,I-80,IC - I-80 @ 1st Ave (06),https://iowadotsfs2.us-east-1.skyvdn.com:443/rtplive/ictv06lb/playlist.m3u8,IADOT,41.685164,-91.565264,Iowa DOT,246910,,,Iowa City,Y,ICTV06,General,
-10242347.94,5114251.791,,59527694,,I-80 @ MM 220,20251113,4512,,I-80,I-80 @ MM 220,https://iowadotsfs1.us-east-1.skyvdn.com:443/rtplive/80tv220lb/playlist.m3u8,IADOT,41.687292,-92.008577,Iowa DOT,246914,,,I-80,Y,80TV220,General,
-10209764.5,5151761.313,,59527702,,CR - US 30 @ Edgewood Rd SW (25),20251113,4512,,US 30,CR - US 30 @ Edgewood Rd SW (25),https://iowadotsfs1.us-east-1.skyvdn.com:443/rtplive/crtv25lb/playlist.m3u8,IADOT,41.938432,-91.715875,Iowa DOT,246925,,,Cedar Rapids,Y,CRTV25,General,
-10268239.63,5115576.771,,59527697,,I-80 @ MM 208,20251113,4512,,I-80,I-80 @ MM 208,https://iowadotsfs1.us-east-1.skyvdn.com:443/rtplive/80TV208lb/playlist.m3u8,IADOT,41.69618,-92.241166,Iowa DOT,246947,,,I-80,Y,80TV208,General,
-10204565.33,5141239.205,,59527698,,CR - I-380 @ Rest Area (01),20251113,4512,,I-380,CR - I-380 @ Rest Area (01),https://iowadotsfs1.us-east-1.skyvdn.com:443/rtplive/crtv01lb/playlist.m3u8,IADOT,41.868082,-91.66917,Iowa DOT,246948,,,Cedar Rapids,Y,CRTV01,General,
-10168701.75,5110745.235,,59527718,,IC - I-80 @ S Downey Dr (21),20251113,4512,,I-80,IC - I-80 @ S Downey Dr (21),https://iowadotsfs2.us-east-1.skyvdn.com:443/rtplive/ictv21lb/playlist.m3u8,IADOT,41.663764,-91.347002,Iowa DOT,246971,,,Iowa City,Y,ICTV21,General,
-10204660.84,5150515.854,,59527722,,CR - I-380 @ US 30 North (05),20251113,4512,,I-380,CR - I-380 @ US 30 North (05),https://iowadotsfs1.us-east-1.skyvdn.com:443/rtplive/crtv05lb/playlist.m3u8,IADOT,41.930109,-91.670028,Iowa DOT,246981,,,Cedar Rapids,Y,CRTV05,General,
-10204651.38,5144628.047,,59526938,,6DX - I-380 @ Wright Brothers Blvd (IWZ 3701),20251112,120438,,I-380,6DX - I-380 @ Wright Brothers Blvd (IWZ 3701),https://iowadotsfs1.us-east-1.skyvdn.com:443/rtplive/iwz3701lb/playlist.m3u8,IADOT,41.890748,-91.669943,Iowa DOT,246997,,,IWZ,Y,IWZ3701,IWZ,
-10107093.53,5135470.351,,59526942,,6EM - US 30 @  MM 299.5 (IWZ 3359),20251112,120438,,US 30,6EM - US 30 @MM 299.5 (IWZ 3359),https://iowadotsfs2.us-east-1.skyvdn.com:443/rtplive/iwz3359lb/playlist.m3u8,IADOT,41.829479,-90.793566,Iowa DOT,247001,,,IWZ,Y,IWZ3359,IWZ,
-10191456.79,5157399.713,,59527731,,CR - IA 13 @ Mt Vernon Rd (49),20251113,4512,,IA 13,CR - IA 13 @ Mt Vernon Rd (49),https://iowadotsfs1.us-east-1.skyvdn.com:443/rtplive/crtv49lb/playlist.m3u8,IADOT,41.976098,-91.551414,Iowa DOT,247004,,,Cedar Rapids,Y,CRTV49,General,
-10204723.29,5142570.467,,59527742,,6DX - I-380 @ MM 13 (IWZ 3700),20251113,4512,,I-380,6DX - I-380 @ MM 13 (IWZ 3700),https://iowadotsfs2.us-east-1.skyvdn.com:443/rtplive/iwz3700lb/playlist.m3u8,IADOT,41.876987,-91.670589,Iowa DOT,247008,,,IWZ,Y,IWZ3700,IWZ,
-10214113.98,5114988.051,,59527740,,IC - I-80 @ Eagle Ave NW (28),20251113,4512,,I-80,IC - I-80 @ Eagle Ave NW (28),https://iowadotsfs1.us-east-1.skyvdn.com:443/rtplive/ictv28lb/playlist.m3u8,IADOT,41.692231,-91.754947,Iowa DOT,247013,,,Iowa City,Y,ICTV28,General,
-10307168.17,5115476.288,,59527746,,I-80 @ MM 190,20251113,4512,,I-80,I-80 @ MM 190,https://iowadotsfs1.us-east-1.skyvdn.com:443/rtplive/80TV190lb/playlist.m3u8,IADOT,41.695506,-92.590867,Iowa DOT,247018,,,I-80,Y,80TV190,General,
-10252710.56,5115097.772,,59527747,,I-80 @ MM 215,20251113,4512,,I-80,I-80 @ MM 215,https://iowadotsfs1.us-east-1.skyvdn.com:443/rtplive/80TV215lb/playlist.m3u8,IADOT,41.692967,-92.101666,Iowa DOT,247019,,,I-80,Y,80TV215,General,
-10099433.75,5101893.483,,59526948,,QC - I-80 @ Walcott DMS (14),20251112,120438,,I-80,QC - I-80 @ Walcott DMS (14),https://iowadotsfs2.us-east-1.skyvdn.com:443/rtplive/qctv14lb/playlist.m3u8,IADOT,41.604333,-90.724757,Iowa DOT,247023,,,Quad Cities,Y,QCTV14,General,
-10221457.72,5114230.922,,59526950,,IC - I-80 @ MM 230 (29),20251112,120438,,I-80,IC - I-80 @ MM 230 (29),https://iowadotsfs1.us-east-1.skyvdn.com:443/rtplive/ictv29lb/playlist.m3u8,IADOT,41.687152,-91.820917,Iowa DOT,247025,,,Iowa City,Y,ICTV29,General,
-10272572.3,5115528.02,,59526957,,I-80 @ MM 206,20251112,120438,,I-80,I-80 @ MM 206,https://iowadotsfs1.us-east-1.skyvdn.com:443/rtplive/80tv206lb/playlist.m3u8,IADOT,41.695853,-92.280087,Iowa DOT,247035,,,I-80,Y,80TV206,General,
-10183829.29,5113908.65,,59526958,,IC - I-80 @ MM 246 (09),20251112,120438,,I-80,IC - I-80 @ MM 246 (09),https://iowadotsfs1.us-east-1.skyvdn.com:443/rtplive/ictv09lb/playlist.m3u8,IADOT,41.68499,-91.482895,Iowa DOT,247036,,,Iowa City,Y,ICTV09,General,
-10206712.23,5165168.937,,59526963,,CR - IA 100 W of I-380 (36),20251112,120438,,IA 100,CR - IA 100 W of I-380 (36),https://iowadotsfs1.us-east-1.skyvdn.com:443/rtplive/crtv36lb/playlist.m3u8,IADOT,42.027962,-91.688456,Iowa DOT,247044,,,Cedar Rapids,Y,CRTV36,General,
-10202334.26,5165256.906,,59526966,,CR - Collins Rd @ Rockwell Dr NE (38),20251112,120438,,Collins Rd,CR - Collins Rd @ Rockwell Dr NE (38),https://iowadotsfs1.us-east-1.skyvdn.com:443/rtplive/crtv38lb/playlist.m3u8,IADOT,42.028549,-91.649128,Iowa DOT,247052,,,Cedar Rapids,Y,CRTV38,General,
-10203332.8,5165210.298,,59526971,,CR - Collins Rd @ Council St NE (37),20251112,120438,,Collins Rd,CR - Collins Rd @ Council St NE (37),https://iowadotsfs1.us-east-1.skyvdn.com:443/rtplive/crtv37lb/playlist.m3u8,IADOT,42.028238,-91.658098,Iowa DOT,247055,,,Cedar Rapids,Y,CRTV37,General,
-10237887.26,5114145.658,,59526976,,I-80 @ MM 222,20251112,120438,,I-80,I-80 @ MM 222,https://iowadotsfs1.us-east-1.skyvdn.com:443/rtplive/80TV222lb/playlist.m3u8,IADOT,41.68658,-91.968506,Iowa DOT,247058,,,I-80,Y,80TV222,General,
-10188601.55,5114375.218,,59526977,,IC - I-80 @ Prairie du Chien (24),20251112,120438,,I-80,IC - I-80 @ Prairie du Chien (24),https://iowadotsfs1.us-east-1.skyvdn.com:443/rtplive/ictv24lb/playlist.m3u8,IADOT,41.68812,-91.525765,Iowa DOT,247059,,,Iowa City,Y,ICTV24,General,
-10204388.66,5138211.553,,59526978,,IC - I-380 @ Swisher (18),20251112,120438,,I-380,IC - I-380 @ Swisher (18),https://iowadotsfs1.us-east-1.skyvdn.com:443/rtplive/ictv18lb/playlist.m3u8,IADOT,41.847825,-91.667583,Iowa DOT,247060,,,Iowa City,Y,ICTV18,General,
-10204721.28,5156125.669,,59526945,,CR - I-380 @ Diagonal Dr SW (08),20251112,120438,,I-380,CR - I-380 @ Diagonal Dr SW (08),https://iowadotsfs1.us-east-1.skyvdn.com:443/rtplive/crtv08lb/playlist.m3u8,IADOT,41.967589,-91.670571,Iowa DOT,247066,,,Cedar Rapids,Y,CRTV08,General,
-10205110.23,5165226.783,,59526964,,CR - IA 100 @ I-380 (17Q),20251112,120438,,IA 100,CR - IA 100 @ I-380 (17Q),https://iowadotsfs2.us-east-1.skyvdn.com:443/rtplive/crtv17qlb/playlist.m3u8,IADOT,42.028348,-91.674065,Iowa DOT,247069,,,Cedar Rapids,Y,CRTV17Q,General,
-10177360.62,5111361.413,,59526992,,IC - I-80 @ Wapsi Ave (10),20251112,120438,,I-80,IC - I-80 @ Wapsi Ave (10),https://iowadotsfs1.us-east-1.skyvdn.com:443/rtplive/ictv10lb/playlist.m3u8,IADOT,41.667899,-91.424786,Iowa DOT,247096,,,Iowa City,Y,ICTV10,General,
-10191914.42,5154854.64,,59526999,,CR - IA 13 @ Bertram Rd (48),20251112,120438,,IA 13,CR - IA 13 @ Bertram Rd (48),https://iowadotsfs1.us-east-1.skyvdn.com:443/rtplive/crtv48lb/playlist.m3u8,IADOT,41.959099,-91.555525,Iowa DOT,247108,,,Cedar Rapids,Y,CRTV48,General,
-10202045.39,5127321.76,,59527005,,IC - I-380 @ Swan Lake (15),20251112,120438,,I-380,IC - I-380 @ Swan Lake (15),https://iowadotsfs1.us-east-1.skyvdn.com:443/rtplive/ictv15lb/playlist.m3u8,IADOT,41.774912,-91.646533,Iowa DOT,247109,,,Iowa City,Y,ICTV15,General,
-10259524.87,5115514.305,,59527011,,I-80 @ MM 212,20251112,120438,,I-80,I-80 @ MM 212,https://iowadotsfs1.us-east-1.skyvdn.com:443/rtplive/80tv212lb/playlist.m3u8,IADOT,41.695761,-92.16288,Iowa DOT,247124,,,I-80,Y,80TV212,General,
-10090806.27,5085087.763,,59527013,,QC - I-280 @ Rockingham Rd (21),20251112,120438,,I-280,QC - I-280 @ Rockingham Rd (21),https://iowadotsfs2.us-east-1.skyvdn.com:443/rtplive/qctv21lb/playlist.m3u8,IADOT,41.491348,-90.647255,Iowa DOT,247126,,,Quad Cities,Y,QCTV21,General,
-10201726.23,5165243.568,,59527022,,CR - Collins Rd @ F Ave NE (39),20251112,120438,,Collins Rd,CR - Collins Rd @ F Ave NE (39),https://iowadotsfs1.us-east-1.skyvdn.com:443/rtplive/crtv39lb/playlist.m3u8,IADOT,42.02846,-91.643666,Iowa DOT,247132,,,Cedar Rapids,Y,CRTV39,General,
-10208067.21,5169797.17,,59527023,,CR - I-380 @ Tower Terrace (20Q),20251112,120438,,I-380,CR - I-380 @ Tower Terrace (20Q),https://iowadotsfs1.us-east-1.skyvdn.com:443/rtplive/crtv20qlb/playlist.m3u8,IADOT,42.058838,-91.700628,Iowa DOT,247133,,,Cedar Rapids,Y,CRTV20Q,General,
-10285537.68,5115623.286,,59527024,,I-80 @ MM 200,20251112,120438,,I-80,I-80 @ MM 200,https://iowadotsfs1.us-east-1.skyvdn.com:443/rtplive/80TV200lb/playlist.m3u8,IADOT,41.696492,-92.396557,Iowa DOT,247134,,,I-80,Y,80TV200,General,
-10216318.44,5154631.142,,59526985,,CR - US 30 @ 80th St SW (60),20251112,120438,,US 30,CR - US 30 @ 80th St SW (60),https://iowadotsfs1.us-east-1.skyvdn.com:443/rtplive/crtv60lb/playlist.m3u8,IADOT,41.957606,-91.77475,Iowa DOT,247138,,,Cedar Rapids,Y,CRTV60,General,
-10200909.04,5115431.712,,59527034,,IC - I-80 @ I-380 NB Flyover (39),20251112,120438,,I-80,IC - I-80 @ I-380 NB Flyover (39),https://iowadotsfs2.us-east-1.skyvdn.com:443/rtplive/ictv39lb/playlist.m3u8,IADOT,41.695207,-91.636325,Iowa DOT,247161,,,Iowa City,Y,ICTV39,General,
-10201625.49,5121870.839,,59527039,,IC - I-380 @ MM 3.15 (37),20251112,120438,,I-380,IC - I-380 @ MM 3.15 (37),https://iowadotsfs1.us-east-1.skyvdn.com:443/rtplive/ictv37lb/playlist.m3u8,IADOT,41.738384,-91.642761,Iowa DOT,247166,,,Iowa City,Y,ICTV37,General,
-10276959.17,5115535.475,,59527041,,I-80 @ MM 204,20251112,120438,,I-80,I-80 @ MM 204,https://iowadotsfs1.us-east-1.skyvdn.com:443/rtplive/80TV204lb/playlist.m3u8,IADOT,41.695903,-92.319495,Iowa DOT,247168,,,I-80,Y,80TV204,General,
-10297519.33,5115322.435,,59527043,,I-80 @ MM 194,20251112,120438,,I-80,I-80 @ MM 194,https://iowadotsfs1.us-east-1.skyvdn.com:443/rtplive/80TV194lb/playlist.m3u8,IADOT,41.694474,-92.50419,Iowa DOT,247170,,,I-80,Y,80TV194,General,
-10225001.02,5114215.718,,59527057,,IC - I-80 @ Y Ave (26),20251112,120438,,I-80,IC - I-80 @ Y Ave (26),https://iowadotsfs1.us-east-1.skyvdn.com:443/rtplive/ictv26lb/playlist.m3u8,IADOT,41.68705,-91.852747,Iowa DOT,247172,,,Iowa City,Y,ICTV26,General,
-10205321.07,5157339.817,,59527055,,CR - I-380 @ 1st Ave SW (09Q),20251112,120438,,I-380,CR - I-380 @ 1st Ave SW (09Q),https://iowadotsfs1.us-east-1.skyvdn.com:443/rtplive/crtv09qlb/playlist.m3u8,IADOT,41.975698,-91.675959,Iowa DOT,247194,,,Cedar Rapids,Y,CRTV09Q,General,
-10248721.2,5114540.683,,59527755,,I-80 @ MM 217,20251113,4512,,I-80,I-80 @ MM 217,https://iowadotsfs1.us-east-1.skyvdn.com:443/rtplive/80TV217lb/playlist.m3u8,IADOT,41.68923,-92.065829,Iowa DOT,247213,,,I-80,Y,80TV217,General,
-10211007.5,5165183.174,,59527071,,CR - IA 100 Near Xavier High School - MM 6.2 (54),20251112,120438,,IA 100,CR - IA 100 Near Xavier High School - MM 6.2 (54),https://iowadotsfs1.us-east-1.skyvdn.com:443/rtplive/crtv54lb/playlist.m3u8,IADOT,42.028057,-91.727041,Iowa DOT,247222,,,Cedar Rapids,Y,CRTV54,General,
-10197858.1,5115206.301,,59527081,,IC - I-80 @ Coral Ridge Ave (04),20251112,120438,,I-80,IC - I-80 @ Coral Ridge Ave (04),https://iowadotsfs1.us-east-1.skyvdn.com:443/rtplive/ictv04lb/playlist.m3u8,IADOT,41.693695,-91.608918,Iowa DOT,247241,,,Iowa City,Y,ICTV04,General,
-10198832.04,5163900.747,,59527089,,CR - IA 100 @ Tama St (43),20251112,120438,,IA 100,CR - IA 100 @ Tama St (43),https://iowadotsfs1.us-east-1.skyvdn.com:443/rtplive/crtv43lb/playlist.m3u8,IADOT,42.019499,-91.617667,Iowa DOT,247248,,,Cedar Rapids,Y,CRTV43,General,
-10228530.3,5197004.217,,59527103,,2CB - I-380 @ MM 43 (IWZ 3172),20251112,120439,,I-380,2CB - I-380 @ MM 43 (IWZ 3172),https://iowadotsfs2.us-east-1.skyvdn.com:443/rtplive/iwz3172lb/playlist.m3u8,IADOT,42.240039,-91.884451,Iowa DOT,247263,,,IWZ,Y,IWZ3172,IWZ,
-10093940.36,5099986.907,,59527119,,QC - I-280 @ Kimberly Rd (22),20251112,120439,,I-280,QC - I-280 @ Kimberly Rd (22),https://iowadotsfs2.us-east-1.skyvdn.com:443/rtplive/qctv22lb/playlist.m3u8,IADOT,41.591525,-90.675409,Iowa DOT,247278,,,Quad Cities,Y,QCTV22,General,
-10205330.2,5157322.298,,59527133,,WWD - I-380 @ 1st Ave (13),20251112,120439,,I-380,WWD - I-380 @ 1st Ave (13),https://iowadotsfs1.us-east-1.skyvdn.com:443/rtplive/wwdtv013lb/playlist.m3u8,IADOT,41.975581,-91.676041,Iowa DOT,247280,,,WWD,Y,WWDTV013,WWD,
-10201200.03,5165189.767,,59527126,,CR - Collins Rd @ C Ave NE (40),20251112,120439,,Collins Rd,CR - Collins Rd @ C Ave NE (40),https://iowadotsfs1.us-east-1.skyvdn.com:443/rtplive/crtv40lb/playlist.m3u8,IADOT,42.028101,-91.638939,Iowa DOT,247288,,,Cedar Rapids,Y,CRTV40,General,
-10208637.06,5151377.468,,59527141,,CR - US 30 @ 21st St SW (26),20251112,120439,,US 30,CR - US 30 @ 21st St SW (26),https://iowadotsfs1.us-east-1.skyvdn.com:443/rtplive/crtv26lb/playlist.m3u8,IADOT,41.935867,-91.705747,Iowa DOT,247304,,,Cedar Rapids,Y,CRTV26,General,
-10208066.66,5169796.27,,59527143,,CR - I-380 @ Tower Terrace Rd (20),20251112,120439,,I-380,CR - I-380 @ Tower Terrace Rd (20),https://iowadotsfs1.us-east-1.skyvdn.com:443/rtplive/crtv20lb/playlist.m3u8,IADOT,42.058832,-91.700623,Iowa DOT,247305,,,Cedar Rapids,Y,CRTV20,General,
-10190173.72,5114128.218,,59527147,,IC - I-80 @ Dubuque St (07),20251112,120439,,I-80,IC - I-80 @ Dubuque St (07),https://iowadotsfs1.us-east-1.skyvdn.com:443/rtplive/ictv07lb/playlist.m3u8,IADOT,41.686463,-91.539888,Iowa DOT,247308,,,Iowa City,Y,ICTV07,General,
-10208067.99,5165340.379,,59527150,,WWD - IA 100 @ Edgewood Rd NE (20),20251112,120439,,IA 100,WWD - IA 100 @ Edgewood Rd NE (20),https://iowadotsfs1.us-east-1.skyvdn.com:443/rtplive/wwdtv020lb/playlist.m3u8,IADOT,42.029106,-91.700635,Iowa DOT,247319,,,WWD,Y,WWDTV020,WWD,
-10201562.93,5119576.972,,59527760,,IC - I-380 @ Forevergreen Rd (13),20251113,4512,,I-380,IC - I-380 @ Forevergreen Rd (13),https://iowadotsfs1.us-east-1.skyvdn.com:443/rtplive/ictv13lb/playlist.m3u8,IADOT,41.723006,-91.642199,Iowa DOT,247333,,,Iowa City,Y,ICTV13,General,
-10202025.02,5115218.675,,59527761,,IC - I-80 @ Jasper Ave (35),20251113,4512,,I-80,IC - I-80 @ Jasper Ave (35),https://iowadotsfs1.us-east-1.skyvdn.com:443/rtplive/ictv35lb/playlist.m3u8,IADOT,41.693778,-91.64635,Iowa DOT,247334,,,Iowa City,Y,ICTV35,General,
-10202016.78,5131150.063,,59527764,,IC - I-380 @ Hwy 965 NE (16),20251113,4512,,I-380,IC - I-380 @ Hwy 965 NE (16),https://iowadotsfs1.us-east-1.skyvdn.com:443/rtplive/ictv16lb/playlist.m3u8,IADOT,41.800554,-91.646276,Iowa DOT,247337,,,Iowa City,Y,ICTV16,General,
-10214147.71,5153302.538,,59527766,,CR - US 30 @ Stoney Point Rd (23),20251113,4512,,US 30,CR - US 30 @ Stoney Point Rd (23),https://iowadotsfs1.us-east-1.skyvdn.com:443/rtplive/crtv23lb/playlist.m3u8,IADOT,41.94873,-91.75525,Iowa DOT,247339,,,Cedar Rapids,Y,CRTV23,General,
-10204240.94,5115191.542,,59527769,,IC - I-80 @ Ireland Ave NW (02A),20251113,4512,,I-80,IC - I-80 @ Ireland Ave NW (02A),https://iowadotsfs1.us-east-1.skyvdn.com:443/rtplive/ictv02alb/playlist.m3u8,IADOT,41.693596,-91.666256,Iowa DOT,247342,,,Iowa City,Y,ICTV02A,General,
-10208224.51,5174808.979,,59527778,,CR - I-380 SB @ MM 28.8 (21),20251113,4512,,I-380,CR - I-380 SB @ MM 28.8 (21),https://iowadotsfs1.us-east-1.skyvdn.com:443/rtplive/crtv21lb/playlist.m3u8,IADOT,42.092256,-91.702041,Iowa DOT,247351,,,Cedar Rapids,Y,CRTV21,General,
-10204658.39,5150042.134,,59527781,,CR - I-380 @ US 30 South (04),20251113,4512,,I-380,CR - I-380 @ US 30 South (04),https://iowadotsfs1.us-east-1.skyvdn.com:443/rtplive/crtv04lb/playlist.m3u8,IADOT,41.926943,-91.670006,Iowa DOT,247358,,,Cedar Rapids,Y,CRTV04,General,
-10204243.17,5161968.593,,59527782,,CR - I-380 @ Coldstream Ave NE (13),20251113,4512,,I-380,CR - I-380 @ Coldstream Ave NE (13),https://iowadotsfs1.us-east-1.skyvdn.com:443/rtplive/crtv13lb/playlist.m3u8,IADOT,42.006603,-91.666276,Iowa DOT,247359,,,Cedar Rapids,Y,CRTV13,General,
-10206282.76,5167865.618,,59527786,,6DW - I-380 @ Boyson Rd (IWZ 3197),20251113,4512,,I-380,6DW - I-380 @ Boyson Rd (IWZ 3197),https://iowadotsfs2.us-east-1.skyvdn.com:443/rtplive/iwz3197lb/playlist.m3u8,IADOT,42.045954,-91.684598,Iowa DOT,247363,,,IWZ,Y,IWZ3197,IWZ,
-10204754.9,5154394.926,,59527797,,CR - I-380 @ Wilson Ave SW (07),20251113,4512,,I-380,CR - I-380 @ Wilson Ave SW (07),https://iowadotsfs1.us-east-1.skyvdn.com:443/rtplive/crtv07lb/playlist.m3u8,IADOT,41.956028,-91.670873,Iowa DOT,247372,,,Cedar Rapids,Y,CRTV07,General,
-10235228.39,5114319.467,,59527199,,I-80 @ MM 223,20251112,120439,,I-80,I-80 @ MM 223,https://iowadotsfs1.us-east-1.skyvdn.com:443/rtplive/80TV223lb/playlist.m3u8,IADOT,41.687746,-91.944621,Iowa DOT,247375,,,I-80,Y,80TV223,General,
-10203984.46,5158524.019,,59527243,,CR - I-380 @ 8th St NE (11),20251112,120439,,I-380,CR - I-380 @ 8th St NE (11),https://iowadotsfs1.us-east-1.skyvdn.com:443/rtplive/crtv11lb/playlist.m3u8,IADOT,41.983606,-91.663952,Iowa DOT,247378,,,Cedar Rapids,Y,CRTV11,General,
-10201485.89,5115582.884,,59527327,,IC - I-380 SB @ I-80 EB Ramp (41),20251112,120440,,I-380,IC - I-380 SB @ I-80 EB Ramp (41),https://iowadotsfs1.us-east-1.skyvdn.com:443/rtplive/ictv41lb/playlist.m3u8,IADOT,41.696221,-91.641507,Iowa DOT,247388,,,Iowa City,Y,ICTV41,General,
-10204315.52,5158236.191,,59527306,,CR - I-380 @ 4th St SE (10),20251112,120440,,I-380,CR - I-380 @ 4th St SE (10),https://iowadotsfs1.us-east-1.skyvdn.com:443/rtplive/crtv10lb/playlist.m3u8,IADOT,41.981684,-91.666926,Iowa DOT,247395,,,Cedar Rapids,Y,CRTV10,General,
-10203899.41,5150002.035,,59527333,,CR - US 30 @ J St SW (28),20251112,120440,,US 30,CR - US 30 @ J St SW (28),https://iowadotsfs1.us-east-1.skyvdn.com:443/rtplive/crtv28lb/playlist.m3u8,IADOT,41.926675,-91.663188,Iowa DOT,247400,,,Cedar Rapids,Y,CRTV28,General,
-10197807.68,5163397.295,,59527336,,CR - IA 100 @ Menards Ln (44),20251112,120440,,IA 100,CR - IA 100 @ Menards Ln (44),https://iowadotsfs1.us-east-1.skyvdn.com:443/rtplive/crtv44lb/playlist.m3u8,IADOT,42.016139,-91.608465,Iowa DOT,247403,,,Cedar Rapids,Y,CRTV44,General,
-10191357.71,5165684.023,,59527345,,CR - IA 13 @ Linn Aire Dr (51),20251112,120440,,IA 13,CR - IA 13 @ Linn Aire Dr (51),https://iowadotsfs1.us-east-1.skyvdn.com:443/rtplive/crtv51lb/playlist.m3u8,IADOT,42.031399,-91.550524,Iowa DOT,247406,,,Cedar Rapids,Y,CRTV51,General,
-10194841.23,5114534.423,,59527355,,IC - I-80 @ 12th Avenue (23),20251112,120440,,I-80,IC - I-80 @ 12th Avenue (23),https://iowadotsfs1.us-east-1.skyvdn.com:443/rtplive/ictv23lb/playlist.m3u8,IADOT,41.689188,-91.581817,Iowa DOT,247407,,,Iowa City,Y,ICTV23,General,
-10200987.63,5149954.306,,59527340,,CR - US 30 @ C St SW (30),20251112,120440,,US 30,CR - US 30 @ C St SW (30),https://iowadotsfs1.us-east-1.skyvdn.com:443/rtplive/crtv30lb/playlist.m3u8,IADOT,41.926356,-91.637031,Iowa DOT,247421,,,Cedar Rapids,Y,CRTV30,General,
-10210165.36,5165464.168,,59527341,,CR - IA 100 W of Edgewood Rd NE - MM 6.6 (53),20251112,120440,,IA 100,CR - IA 100 W of Edgewood Rd NE - MM 6.6 (53),https://iowadotsfs1.us-east-1.skyvdn.com:443/rtplive/crtv53lb/playlist.m3u8,IADOT,42.029932,-91.719476,Iowa DOT,247422,,,Cedar Rapids,Y,CRTV53,General,
-10196881.16,5115218.973,,59527348,,IC - I-80 @ East of Coral Ridge Ave (05),20251112,120440,,I-80,IC - I-80 @ East of Coral Ridge Ave (05),https://iowadotsfs1.us-east-1.skyvdn.com:443/rtplive/ictv05lb/playlist.m3u8,IADOT,41.69378,-91.600142,Iowa DOT,247425,,,Iowa City,Y,ICTV05,General,
-10228763.85,5114260.437,,59527353,,I-80 @ MM 226,20251112,120440,,I-80,I-80 @ MM 226,https://iowadotsfs1.us-east-1.skyvdn.com:443/rtplive/80TV226lb/playlist.m3u8,IADOT,41.68735,-91.886549,Iowa DOT,247430,,,I-80,Y,80TV226,General,
-10198018.29,5111134.905,,59527357,,IC - US 218 @ Melrose DMS (25),20251112,120440,,US 218,IC - US 218 @ Melrose DMS (25),https://iowadotsfs1.us-east-1.skyvdn.com:443/rtplive/ictv25lb/playlist.m3u8,IADOT,41.666379,-91.610357,Iowa DOT,247431,,,Iowa City,Y,ICTV25,General,
-10089798.05,5083899.08,,59527360,,QC - I-280 @ MM 9.25 (51),20251112,120440,,I-280,QC - I-280 @ MM 9.25 (51),https://iowadotsfs1.us-east-1.skyvdn.com:443/rtplive/qctv51lb/playlist.m3u8,IADOT,41.483349,-90.638198,Iowa DOT,247434,,,Quad Cities,Y,QCTV51,General,
-10192983.31,5113922.513,,59527364,,WWD - I-80 W @ 1st Ave (73),20251112,120440,,I-80,WWD - I-80 W @ 1st Ave (73),https://iowadotsfs1.us-east-1.skyvdn.com:443/rtplive/wwdtv073lb/playlist.m3u8,IADOT,41.685083,-91.565127,Iowa DOT,247439,,,WWD,Y,WWDTV073,WWD,
-10164323.33,5110666.409,,59527368,,I-80 @ MM 256.7,20251112,120440,,I-80,I-80 @ MM 256.7,https://iowadotsfs2.us-east-1.skyvdn.com:443/rtplive/80tv256lb/playlist.m3u8,IADOT,41.663235,-91.30767,Iowa DOT,247455,,,I-80,Y,80TV256,General,
-10108517.98,5135484.394,,59527383,,6EM - US 30 @ MM 298.5 (IWZ 3361),20251112,120440,,US 30,6EM - US 30 @ MM 298.5 (IWZ 3361),https://iowadotsfs2.us-east-1.skyvdn.com:443/rtplive/iwz3361lb/playlist.m3u8,IADOT,41.829573,-90.806362,Iowa DOT,247480,,,IWZ,Y,IWZ3361,IWZ,
-10204886.93,5147047.142,,59527397,,CR - I-380 @ 76th Ave (03),20251112,120440,,I-380,CR - I-380 @ 76th Ave (03),https://iowadotsfs1.us-east-1.skyvdn.com:443/rtplive/crtv03lb/playlist.m3u8,IADOT,41.906923,-91.672059,Iowa DOT,247489,,,Cedar Rapids,Y,CRTV03,General,
-10216510.69,5157816.295,,59527398,,CR - IA 100 @ E Ave NW - MM 1.3 (59),20251112,120440,,IA 100,CR - IA 100 @ E Ave NW - MM 1.3 (59),https://iowadotsfs1.us-east-1.skyvdn.com:443/rtplive/crtv59lb/playlist.m3u8,IADOT,41.97888,-91.776477,Iowa DOT,247490,,,Cedar Rapids,Y,CRTV59,General,
-10198965.29,5115315.428,,59527405,,IC - I-80 @ US 6 (40),20251112,120440,,I-80,IC - I-80 @ US 6 (40),https://iowadotsfs1.us-east-1.skyvdn.com:443/rtplive/ictv40lb/playlist.m3u8,IADOT,41.694427,-91.618864,Iowa DOT,247503,,,Iowa City,Y,ICTV40,General,
-10217122.83,5155393.871,,59527406,,CR - US 30 @ IA 100 (22Q),20251112,120440,,US 30,CR - US 30 @ IA 100 (22Q),https://iowadotsfs2.us-east-1.skyvdn.com:443/rtplive/crtv22qlb/playlist.m3u8,IADOT,41.962701,-91.781976,Iowa DOT,247511,,,Cedar Rapids,Y,CRTV22Q,General,
-10197243.18,5150024.03,,59527408,,CR - US 30 @ Honey Grove Rd (32),20251112,120440,,US 30,CR - US 30 @ Honey Grove Rd (32),https://iowadotsfs1.us-east-1.skyvdn.com:443/rtplive/crtv32lb/playlist.m3u8,IADOT,41.926822,-91.603394,Iowa DOT,247512,,,Cedar Rapids,Y,CRTV32,General,
-10195593.98,5163267.091,,59527370,,CR - IA 100 @ S 22nd St (46),20251112,120440,,IA 100,CR - IA 100 @ S 22nd St (46),https://iowadotsfs1.us-east-1.skyvdn.com:443/rtplive/crtv46lb/playlist.m3u8,IADOT,42.01527,-91.588579,Iowa DOT,247518,,,Cedar Rapids,Y,CRTV46,General,
-10245275.53,5114152.813,,59527432,,I-80 @ MM 219,20251112,120440,,I-80,I-80 @ MM 219,https://iowadotsfs1.us-east-1.skyvdn.com:443/rtplive/80TV219lb/playlist.m3u8,IADOT,41.686628,-92.034876,Iowa DOT,247524,,,I-80,Y,80TV219,General,
-10201629.16,5115040.377,,59527423,,IC - Kansas Ave @ I-80/380 System IC (33),20251112,120440,,Kansas Ave,IC - Kansas Ave @ I-80/380 System IC (33),https://iowadotsfs1.us-east-1.skyvdn.com:443/rtplive/ictv33lb/playlist.m3u8,IADOT,41.692582,-91.642794,Iowa DOT,247531,,,Iowa City,Y,ICTV33,General,
-10093949.26,5099940.914,,59527448,,WWD - I-280 @ Kimberly Rd (22),20251112,120441,,I-280,WWD - I-280 @ Kimberly Rd (22),https://iowadotsfs1.us-east-1.skyvdn.com:443/rtplive/wwdtv022lb/playlist.m3u8,IADOT,41.591216,-90.675489,Iowa DOT,247550,,,WWD,Y,WWDTV022,WWD,
-10291089.18,5115538.605,,59527441,,I-80 @ MM 197,20251112,120441,,I-80,I-80 @ MM 197,https://iowadotsfs1.us-east-1.skyvdn.com:443/rtplive/80TV197lb/playlist.m3u8,IADOT,41.695924,-92.446427,Iowa DOT,247552,,,I-80,Y,80TV197,General,
-10185685.43,5114182.626,,59527451,,IC - I-80 @ IA 1 (08),20251112,120441,,I-80,IC - I-80 @ IA 1 (08),https://iowadotsfs1.us-east-1.skyvdn.com:443/rtplive/ictv08lb/playlist.m3u8,IADOT,41.686828,-91.499569,Iowa DOT,247568,,,Iowa City,Y,ICTV08,General,
-10208057.42,5169783.826,,59527455,,WWD - I-380 S @ Tower Terrace Rd (71),20251112,120441,,I-380,WWD - I-380 S @ Tower Terrace Rd (71),https://iowadotsfs1.us-east-1.skyvdn.com:443/rtplive/wwdtv071lb/playlist.m3u8,IADOT,42.058749,-91.70054,Iowa DOT,247572,,,WWD,Y,WWDTV071,WWD,
-10203161.81,5149974.505,,59527465,,CR - US 30 @ Kirkwood Blvd SW (29),20251112,120441,,US 30,CR - US 30 @ Kirkwood Blvd SW (29),https://iowadotsfs1.us-east-1.skyvdn.com:443/rtplive/crtv29lb/playlist.m3u8,IADOT,41.926491,-91.656562,Iowa DOT,247597,,,Cedar Rapids,Y,CRTV29,General,
-10196678.12,5109747.216,,59527468,,IC - US 218 @ Melrose (12),20251112,120441,,US 218,IC - US 218 @ Melrose (12),https://iowadotsfs1.us-east-1.skyvdn.com:443/rtplive/ictv12lb/playlist.m3u8,IADOT,41.657066,-91.598318,Iowa DOT,247605,,,Iowa City,Y,ICTV12,General,
-10095080.6,5101761.88,,59527486,,QC - I-80 @ Co Rd Y48 (15),20251112,120441,,I-80,QC - I-80 @ Co Rd Y48 (15),https://iowadotsfs2.us-east-1.skyvdn.com:443/rtplive/qctv15lb/playlist.m3u8,IADOT,41.603449,-90.685652,Iowa DOT,247614,,,Quad Cities,Y,QCTV15,General,
-10293227.4,5115410.393,,59527489,,I-80 @ MM 196,20251112,120441,,I-80,I-80 @ MM 196,https://iowadotsfs1.us-east-1.skyvdn.com:443/rtplive/80TV196lb/playlist.m3u8,IADOT,41.695064,-92.465635,Iowa DOT,247617,,,I-80,Y,80TV196,General,
-10205021.85,5165218.391,,59527507,,CR - I-380 @ Collins Rd- North (17),20251112,120441,,I-380,CR - I-380 @ Collins Rd- North (17),https://iowadotsfs1.us-east-1.skyvdn.com:443/rtplive/crtv17lb/playlist.m3u8,IADOT,42.028292,-91.673271,Iowa DOT,247649,,,Cedar Rapids,Y,CRTV17,General,
-10200715.34,5114183.371,,59527522,,IC - US 218 @ South of I-80 (34),20251112,120441,,US 218,IC - US 218 @ South of I-80 (34),https://iowadotsfs1.us-east-1.skyvdn.com:443/rtplive/ictv34lb/playlist.m3u8,IADOT,41.686833,-91.634585,Iowa DOT,247653,,,Iowa City,Y,ICTV34,General,
-10204736.42,5152639.353,,59527529,,WWD - I-380 @ 33rd Ave (12),20251112,120441,,I-380,WWD - I-380 @ 33rd Ave (12),https://iowadotsfs1.us-east-1.skyvdn.com:443/rtplive/wwdtv012lb/playlist.m3u8,IADOT,41.944299,-91.670707,Iowa DOT,247654,,,WWD,Y,WWDTV012,WWD,
-10217080.42,5155457.497,,59527515,,CR - US 30 @ 16th Ave SW (22),20251112,120441,,US 30,CR - US 30 @ 16th Ave SW (22),https://iowadotsfs1.us-east-1.skyvdn.com:443/rtplive/crtv22lb/playlist.m3u8,IADOT,41.963126,-91.781595,Iowa DOT,247663,,,Cedar Rapids,Y,CRTV22,General,
-10204338.23,5162803.075,,59527525,,CR - I-380 @ 32nd St NE (14),20251112,120441,,I-380,CR - I-380 @ 32nd St NE (14),https://iowadotsfs1.us-east-1.skyvdn.com:443/rtplive/crtv14lb/playlist.m3u8,IADOT,42.012173,-91.66713,Iowa DOT,247684,,,Cedar Rapids,Y,CRTV14,General,
-10311462.2,5115575.877,,59527527,,I-80 @ MM 188,20251112,120441,,I-80,I-80 @ MM 188,https://iowadotsfs1.us-east-1.skyvdn.com:443/rtplive/80TV188lb/playlist.m3u8,IADOT,41.696174,-92.629441,Iowa DOT,247685,,,I-80,Y,80TV188,General,
-10201020.02,5149870.368,,59527533,,WWD - US 30 E @ C St SW (19),20251112,120441,,US 30,WWD - US 30 E @ C St SW (19),https://iowadotsfs1.us-east-1.skyvdn.com:443/rtplive/wwdtv019lb/playlist.m3u8,IADOT,41.925795,-91.637322,Iowa DOT,247693,,,WWD,Y,WWDTV019,WWD,
-10205394.99,5150161.834,,59527538,,WWD - US 30 @ 6th St SW (10),20251112,120441,,US 30,WWD - US 30 @ 6th St SW (10),https://iowadotsfs1.us-east-1.skyvdn.com:443/rtplive/wwdtv010lb/playlist.m3u8,IADOT,41.927743,-91.676623,Iowa DOT,247696,,,WWD,Y,WWDTV010,WWD,
-10204695.35,5154222.033,,59527503,,WWD - I-380 @ Wilson Ave (11),20251112,120441,,I-380,WWD - I-380 @ Wilson Ave (11),https://iowadotsfs1.us-east-1.skyvdn.com:443/rtplive/wwdtv011lb/playlist.m3u8,IADOT,41.954873,-91.670338,Iowa DOT,247703,,,WWD,Y,WWDTV011,WWD,
-10200963.36,5115174.1,,59527543,,IC - I-80 @ I-380 NB Flyover (38),20251112,120441,,I-80,IC - I-80 @ I-380 NB Flyover (38),https://iowadotsfs2.us-east-1.skyvdn.com:443/rtplive/ictv38lb/playlist.m3u8,IADOT,41.693479,-91.636813,Iowa DOT,247705,,,Iowa City,Y,ICTV38,General,
-10212966.72,5164950.292,,59527549,,CR - IA 100 W of Cedar River - MM 5.3 (56),20251112,120441,,IA 100,CR - IA 100 W of Cedar River - MM 5.3 (56),https://iowadotsfs1.us-east-1.skyvdn.com:443/rtplive/crtv56lb/playlist.m3u8,IADOT,42.026503,-91.744641,Iowa DOT,247709,,,Cedar Rapids,Y,CRTV56,General,
-10191369.85,5166329.531,,59527550,,CR - IA 13 @ 7th Ave (52),20251112,120441,,IA 13,CR - IA 13 @ 7th Ave (52),https://iowadotsfs1.us-east-1.skyvdn.com:443/rtplive/crtv52lb/playlist.m3u8,IADOT,42.035706,-91.550633,Iowa DOT,247710,,,Cedar Rapids,Y,CRTV52,General,
-10208153.38,5165364.058,,59527556,,CR - IA 100 @ Edgewood Rd NE (35Q),20251112,120441,,IA 100,CR - IA 100 @ Edgewood Rd NE (35Q),https://iowadotsfs1.us-east-1.skyvdn.com:443/rtplive/crtv35qlb/playlist.m3u8,IADOT,42.029264,-91.701402,Iowa DOT,247716,,,Cedar Rapids,Y,CRTV35Q,General,
-10216332.69,5154602.101,,59527560,,CR - US 30 @ 80th St SW (60Q),20251112,120441,,US 30,CR - US 30 @ 80th St SW (60Q),https://iowadotsfs1.us-east-1.skyvdn.com:443/rtplive/crtv60qlb/playlist.m3u8,IADOT,41.957412,-91.774878,Iowa DOT,247723,,,Cedar Rapids,Y,CRTV60Q,General,
-10200726.81,5115001.17,,59527578,,IC - US 218 NB Ramp to I-80 (32),20251112,120441,,US 218,IC - US 218 NB Ramp to I-80 (32),https://iowadotsfs1.us-east-1.skyvdn.com:443/rtplive/ictv32lb/playlist.m3u8,IADOT,41.692319,-91.634688,Iowa DOT,247736,,,Iowa City,Y,ICTV32,General,
-10204781.62,5154348.072,,59527584,,CR - I-380 @ Wilson Ave SW (07Q),20251112,120441,,I-380,CR - I-380 @ Wilson Ave SW (07Q),https://iowadotsfs1.us-east-1.skyvdn.com:443/rtplive/crtv07qlb/playlist.m3u8,IADOT,41.955715,-91.671113,Iowa DOT,247742,,,Cedar Rapids,Y,CRTV07Q,General,
-10209775.97,5151696.365,,59527589,,WWD - US 30 @ Edgewood Rd (15),20251112,120441,,US 30,WWD - US 30 @ Edgewood Rd (15),https://iowadotsfs1.us-east-1.skyvdn.com:443/rtplive/wwdtv015lb/playlist.m3u8,IADOT,41.937998,-91.715978,Iowa DOT,247756,,,WWD,Y,WWDTV015,WWD,
-10206206.62,5150473.359,,59527591,,CR - US 30 @ W of 6th St SW (27),20251112,120441,,US 30,CR - US 30 @ W of 6th St SW (27),https://iowadotsfs1.us-east-1.skyvdn.com:443/rtplive/crtv27lb/playlist.m3u8,IADOT,41.929825,-91.683914,Iowa DOT,247758,,,Cedar Rapids,Y,CRTV27,General,
-10216343.48,5161018.391,,59527617,,CR - IA 100 @ Ellis Rd - MM 2.8 (58),20251112,120441,,IA 100,CR - IA 100 @ Ellis Rd - MM 2.8 (58),https://iowadotsfs1.us-east-1.skyvdn.com:443/rtplive/crtv58lb/playlist.m3u8,IADOT,42.00026,-91.774975,Iowa DOT,247780,,,Cedar Rapids,Y,CRTV58,General,
-10274820.5,5115562.012,,59527619,,I-80 @ MM 205,20251112,120441,,I-80,I-80 @ MM 205,https://iowadotsfs1.us-east-1.skyvdn.com:443/rtplive/80TV205lb/playlist.m3u8,IADOT,41.696081,-92.300283,Iowa DOT,247782,,,I-80,Y,80TV205,General,
-10230944.37,5114304.113,,59527604,,I-80 @ MM 225,20251112,120441,,I-80,I-80 @ MM 225,https://iowadotsfs1.us-east-1.skyvdn.com:443/rtplive/80TV225lb/playlist.m3u8,IADOT,41.687643,-91.906137,Iowa DOT,247794,,,I-80,Y,80TV225,General,
-10203195.98,5150008.619,,59527440,,WWD - US 30 @ Kirkwood Blvd SW - N (16),20251113,175522,,US 30,WWD - US 30 @ Kirkwood Blvd SW - N (16),https://iowadotsfs1.us-east-1.skyvdn.com:443/rtplive/wwdtv016lb/playlist.m3u8,IADOT,41.926719,-91.656869,Iowa DOT,247795,,,WWD,Y,WWDTV016,WWD,
-10203197.99,5149920.042,,59527265,,WWD - US 30 @ Kirkwood Blvd SW - S (17),20251113,175522,,US 30,WWD - US 30 @ Kirkwood Blvd SW - S (17),https://iowadotsfs1.us-east-1.skyvdn.com:443/rtplive/wwdtv017lb/playlist.m3u8,IADOT,41.926127,-91.656887,Iowa DOT,247813,,,WWD,Y,WWDTV017,WWD,
-10204958.62,5165202.805,,59527165,,CR - I-380 @ Collins Rd- South (16),20251112,120439,,I-380,CR - I-380 @ Collins Rd- South (16),https://iowadotsfs1.us-east-1.skyvdn.com:443/rtplive/crtv16lb/playlist.m3u8,IADOT,42.028188,-91.672703,Iowa DOT,247826,,,Cedar Rapids,Y,CRTV16,General,
-10215447.92,5162872.294,,59527166,,CR - IA 100 @ Covington Rd - MM 3.8 (57),20251112,120439,,IA 100,CR - IA 100 @ Covington Rd - MM 3.8 (57),https://iowadotsfs1.us-east-1.skyvdn.com:443/rtplive/crtv57lb/playlist.m3u8,IADOT,42.012635,-91.76693,Iowa DOT,247827,,,Cedar Rapids,Y,CRTV57,General,
-10193240.79,5106247.071,,59527171,,IC - US 218 @ IA 1 (11),20251112,120439,,US 218,IC - US 218 @ IA 1 (11),https://iowadotsfs1.us-east-1.skyvdn.com:443/rtplive/ictv11lb/playlist.m3u8,IADOT,41.63357,-91.56744,Iowa DOT,247832,,,Iowa City,Y,ICTV11,General,
-10208124.99,5165400.775,,59527179,,CR - IA 100 @ Edgewood Rd NE (35),20251112,120439,,IA 100,CR - IA 100 @ Edgewood Rd NE (35),https://iowadotsfs1.us-east-1.skyvdn.com:443/rtplive/crtv35lb/playlist.m3u8,IADOT,42.029509,-91.701147,Iowa DOT,247842,,,Cedar Rapids,Y,CRTV35,General,
-10094156.87,5101639.658,,59527186,,QC - I-80 @ I-280 (16),20251112,120439,,I-80,QC - I-80 @ I-280 (16),https://iowadotsfs2.us-east-1.skyvdn.com:443/rtplive/qctv16lb/playlist.m3u8,IADOT,41.602628,-90.677354,Iowa DOT,247846,,,Quad Cities,Y,QCTV16,General,
-10205299.7,5157336.373,,59527193,,CR - I-380 @ 1st Ave SW (09),20251112,120439,,I-380,CR - I-380 @ 1st Ave SW (09),https://iowadotsfs1.us-east-1.skyvdn.com:443/rtplive/crtv09lb/playlist.m3u8,IADOT,41.975675,-91.675767,Iowa DOT,247859,,,Cedar Rapids,Y,CRTV09,General,
-10202922.03,5133880.467,,59527215,,IC - I-380 @ Iowa River (17),20251112,120439,,I-380,IC - I-380 @ Iowa River (17),https://iowadotsfs1.us-east-1.skyvdn.com:443/rtplive/ictv17lb/playlist.m3u8,IADOT,41.818836,-91.654408,Iowa DOT,247867,,,Iowa City,Y,ICTV17,General,
-10204838.62,5152828.53,,59527219,,CR - I-380 @ 33rd Ave SW (06),20251112,120439,,I-380,CR - I-380 @ 33rd Ave SW (06),https://iowadotsfs1.us-east-1.skyvdn.com:443/rtplive/crtv06lb/playlist.m3u8,IADOT,41.945563,-91.671625,Iowa DOT,247885,,,Cedar Rapids,Y,CRTV06,General,
-10203197.99,5149869.919,,59527222,,WWD - US 30 E @ C St SW (18N),20251112,120439,,US 30,WWD - US 30 E @ C St SW (18N),https://iowadotsfs1.us-east-1.skyvdn.com:443/rtplive/wwdtv018lb/playlist.m3u8,IADOT,41.925792,-91.656887,Iowa DOT,247894,,,WWD,Y,WWDTV018,WWD,
-10201662.34,5117412.785,,59527228,,IC - I-380 @ Oak Hill School (36),20251112,120439,,I-380,IC - I-380 @ Oak Hill School (36),https://iowadotsfs1.us-east-1.skyvdn.com:443/rtplive/ictv36lb/playlist.m3u8,IADOT,41.708494,-91.643092,Iowa DOT,247900,,,Iowa City,Y,ICTV36,General,
-10201129.12,5115222.253,,59527229,,IC - I-380 @ MM 0.2 (03),20251112,120439,,I-380,IC - I-380 @ MM 0.2 (03),https://iowadotsfs1.us-east-1.skyvdn.com:443/rtplive/ictv03lb/playlist.m3u8,IADOT,41.693802,-91.638302,Iowa DOT,247901,,,Iowa City,Y,ICTV03,General,
-10191396.01,5160212.973,,59527232,,CR - IA 13 @ Cottage Grove Pkwy (50),20251112,120439,,IA 13,CR - IA 13 @ Cottage Grove Pkwy (50),https://iowadotsfs1.us-east-1.skyvdn.com:443/rtplive/crtv50lb/playlist.m3u8,IADOT,41.994883,-91.550868,Iowa DOT,247903,,,Cedar Rapids,Y,CRTV50,General,
-10212016.5,5165366.605,,59527238,,CR - IA 100 E of Cedar River - MM 5.7 (55),20251112,120439,,IA 100,CR - IA 100 E of Cedar River - MM 5.7 (55),https://iowadotsfs1.us-east-1.skyvdn.com:443/rtplive/crtv55lb/playlist.m3u8,IADOT,42.029281,-91.736105,Iowa DOT,247909,,,Cedar Rapids,Y,CRTV55,General,
-10212642.67,5152789.317,,59527250,,CR - US 30 @ Williams Blvd SW (24),20251112,120439,,US 30,CR - US 30 @ Williams Blvd SW (24),https://iowadotsfs1.us-east-1.skyvdn.com:443/rtplive/crtv24lb/playlist.m3u8,IADOT,41.945301,-91.74173,Iowa DOT,247917,,,Cedar Rapids,Y,CRTV24,General,
-10288309.75,5115515.199,,59527252,,I-80 @ MM 198,20251112,120439,,I-80,I-80 @ MM 198,https://iowadotsfs1.us-east-1.skyvdn.com:443/rtplive/80TV198lb/playlist.m3u8,IADOT,41.695767,-92.421459,Iowa DOT,247919,,,I-80,Y,80TV198,General,
-10281187.76,5115438.868,,59527254,,I-80 @ MM 202,20251112,120439,,I-80,I-80 @ MM 202,https://iowadotsfs1.us-east-1.skyvdn.com:443/rtplive/80TV202lb/playlist.m3u8,IADOT,41.695255,-92.357481,Iowa DOT,247921,,,I-80,Y,80TV202,General,
-10192998.56,5113913.718,,59527266,,IC - I-80 @ 1st Ave (06Q),20251112,120440,,I-80,IC - I-80 @ 1st Ave (06Q),https://iowadotsfs2.us-east-1.skyvdn.com:443/rtplive/ictv06qlb/playlist.m3u8,IADOT,41.685024,-91.565264,Iowa DOT,247944,,,Iowa City,Y,ICTV06Q,General,
-10198818.57,5149951.463,,59527269,,CR - US 30 @ Ivanhoe Rd SW (31),20251112,120440,,US 30,CR - US 30 @ Ivanhoe Rd SW (31),https://iowadotsfs1.us-east-1.skyvdn.com:443/rtplive/crtv31lb/playlist.m3u8,IADOT,41.926337,-91.617546,Iowa DOT,247947,,,Cedar Rapids,Y,CRTV31,General,
-10302921.77,5115647.736,,59527274,,I-80 @ MM 192,20251112,120440,,I-80,I-80 @ MM 192,https://iowadotsfs1.us-east-1.skyvdn.com:443/rtplive/80TV192lb/playlist.m3u8,IADOT,41.696656,-92.552721,Iowa DOT,247952,,,I-80,Y,80TV192,General,
-10190445.67,5150020.139,,59527285,,CR - US 30 @ IA 13 (34),20251112,120440,,US 30,CR - US 30 @ IA 13 (34),https://iowadotsfs1.us-east-1.skyvdn.com:443/rtplive/crtv34lb/playlist.m3u8,IADOT,41.926796,-91.542331,Iowa DOT,247963,,,Cedar Rapids,Y,CRTV34,General,
-10191353.37,5163933.563,,59527294,,CR - IA 100 @ IA 13 (47),20251112,120440,,IA 100,CR - IA 100 @ IA 13 (47),https://iowadotsfs1.us-east-1.skyvdn.com:443/rtplive/crtv47lb/playlist.m3u8,IADOT,42.019718,-91.550485,Iowa DOT,247977,,,Cedar Rapids,Y,CRTV47,General,
-10206989.86,5115311.85,,59527312,,IC - I-80 @ Half Moon Rd (01),20251112,120440,,I-80,IC - I-80 @ Half Moon Rd (01),https://iowadotsfs1.us-east-1.skyvdn.com:443/rtplive/ictv01lb/playlist.m3u8,IADOT,41.694403,-91.69095,Iowa DOT,248001,,,Iowa City,Y,ICTV01,General,
-10204274.45,5160315.275,,59527316,,CR - I-380 @ H Ave NE (12),20251112,120440,,I-380,CR - I-380 @ H Ave NE (12),https://iowadotsfs1.us-east-1.skyvdn.com:443/rtplive/crtv12lb/playlist.m3u8,IADOT,41.995566,-91.666557,Iowa DOT,248005,,,Cedar Rapids,Y,CRTV12,General,
-10255189.87,5115270.853,,59527422,,I-80 @ MM 214,20251112,120440,,I-80,I-80 @ MM 214,https://iowadotsfs1.us-east-1.skyvdn.com:443/rtplive/80TV214lb/playlist.m3u8,IADOT,41.694128,-92.123938,Iowa DOT,248021,,,I-80,Y,80TV214,General,
-10204563.88,5158020.401,,59527439,,WWD - I-380 @ 2nd St NE (08),20251112,120440,,I-380,WWD - I-380 @ 2nd St NE (08),https://iowadotsfs1.us-east-1.skyvdn.com:443/rtplive/wwdtv08lb/playlist.m3u8,IADOT,41.980243,-91.669157,Iowa DOT,248028,,,WWD,Y,WWDTV08,WWD,
-10219692.09,5114416.51,,59527629,,IC - I-80 @ Black Hawk Ave NW (27),20251112,120441,,I-80,IC - I-80 @ Black Hawk Ave NW (27),https://iowadotsfs1.us-east-1.skyvdn.com:443/rtplive/ictv27lb/playlist.m3u8,IADOT,41.688397,-91.805056,Iowa DOT,248042,,,Iowa City,Y,ICTV27,General,
